{"type":"FeatureCollection","features":[{"type":"Feature","properties":{"Gedung":"Rektorat"},"geometry":{"type":"Polygon","coordinates":[[[107.5755235,-6.8736927],[107.5755063,-6.873878],[107.5758133,-6.8739195],[107.5758452,-6.8737439],[107.5755235,-6.8736927]]]}},{"type":"Feature","properties":{"Gedung":"ULBI","Kampus":"ULBI"},"geometry":{"type":"Point","coordinates":[107.575914,-6.8732098]}},{"type":"Feature","properties":{"Gedung":"Auditorium"},"geometry":{"type":"Polygon","coordinates":[[[107.5760196,-6.8732732],[107.5759705,-6.873661],[107.576226,-6.8737024],[107.5762898,-6.873322],[107.5760196,-6.8732732]]]}}]}